STARLINK-37053          
1 68159U 26049T   26101.02729698  .00130662  00000+0  86414-3 0  9996
2 68159  97.2846 121.9437 0001178  27.2699 332.8628 15.75174325  4518
STARLINK-36306          
1 68160U 26049U   26101.30399339  .00187615  00000+0  12278-2 0  9990
2 68160  97.2848 122.1791 0003871 110.0128 250.1555 15.75249019  4556
STARLINK-37057          
1 68161U 26049V   26101.02517885  .00156696  00000+0  10319-2 0  9997
2 68161  97.2849 121.9471 0001166  27.9199 332.2129 15.75198625  4510
STARLINK-37013          
1 68162U 26049W   26101.25002315 -.00126513  00000+0 -85760-3 0  9990
2 68162  97.2846 122.2453 0001381  88.9252 251.3305 15.75252133  5858
STARLINK-36958          
1 68163U 26049X   26101.02941386  .00137341  00000+0  90506-3 0  9999
2 68163  97.2847 121.9414 0001951 100.5133 259.6352 15.75236970  4511
STARLINK-37002          
1 68164U 26049Y   26101.25002315 -.00106439  00000+0 -72041-3 0  9995
2 68164  97.2843 122.2395 0000839  94.7635 233.4990 15.75230906  5854
STARLINK-36971          
1 68165U 26049Z   26101.03576664  .00177629  00000+0  11647-2 0  9996
2 68165  97.2844 121.9326 0001105  76.2156 283.9232 15.75239621  4510
STARLINK-36273          
1 68166U 26049AA  26101.30328939  .00257719  00000+0  16751-2 0  9997
2 68166  97.2851 122.1792 0003027 105.3563 254.8037 15.75215889  4554
STARLINK-36969          
1 68167U 26050A   26101.25002315 -.01924751  00000+0 -20703-1 0  9992
2 68167  53.1595 118.8469 0001111  95.7398 189.5713 15.66220415  5674
STARLINK-36984          
1 68168U 26050B   26101.25002315 -.01882875  00000+0 -31868-1 0  9997
2 68168  53.1599 119.2602 0001059  78.4476   3.5572 15.54448813  5678
STARLINK-37077          
1 68169U 26050C   26101.25002315 -.01950008  00000+0 -19530-1 0  9994
2 68169  53.1595 118.7863 0000883  83.7268 231.0939 15.68005503  5675
STARLINK-37003          
1 68170U 26050D   26101.25002315 -.01951898  00000+0 -19161-1 0  9994
2 68170  53.1592 118.7661 0000858  85.2349 239.1411 15.68492980  5672
STARLINK-37034          
1 68171U 26050E   26101.25002315 -.01930420  00000+0 -20333-1 0  9996
2 68171  53.1595 118.7984 0001021  96.1150 212.7307 15.66744785  5670
STARLINK-37031          
1 68172U 26050F   26101.25002315 -.01955730  00000+0 -18273-1 0  9998
2 68172  53.1596 118.7239 0000792  85.9234 259.0514 15.69683752  5671
STARLINK-37076          
1 68173U 26050G   26101.25002315 -.01938620  00000+0 -17329-1 0  9999
2 68173  53.1597 118.6962 0000757  85.4744 273.2529 15.70707849  5677
STARLINK-37078          
1 68174U 26050H   26101.25002315 -.01952099  00000+0 -17408-1 0  9994
2 68174  53.1597 118.6858 0000774  83.6529 279.9568 15.70784589  5674
