[{"OBJECT_NAME":"STARLINK-37053","OBJECT_ID":"2026-049T","EPOCH":"2026-04-11T00:39:18.459072","MEAN_MOTION":15.75174325,"ECCENTRICITY":0.00011789,"INCLINATION":97.2846,"RA_OF_ASC_NODE":121.9437,"ARG_OF_PERICENTER":27.2699,"MEAN_ANOMALY":332.8628,"EPHEMERIS_TYPE":0,"CLASSIFICATION_TYPE":"U","NORAD_CAT_ID":68159,"ELEMENT_SET_NO":999,"REV_AT_EPOCH":451,"BSTAR":0.00086413889,"MEAN_MOTION_DOT":0.00130662,"MEAN_MOTION_DDOT":0},{"OBJECT_NAME":"STARLINK-36306","OBJECT_ID":"2026-049U","EPOCH":"2026-04-11T07:17:45.028896","MEAN_MOTION":15.75249019,"ECCENTRICITY":0.00038718,"INCLINATION":97.2848,"RA_OF_ASC_NODE":122.1791,"ARG_OF_PERICENTER":110.0128,"MEAN_ANOMALY":250.1555,"EPHEMERIS_TYPE":0,"CLASSIFICATION_TYPE":"U","NORAD_CAT_ID":68160,"ELEMENT_SET_NO":999,"REV_AT_EPOCH":455,"BSTAR":0.0012278396,"MEAN_MOTION_DOT":0.00187615,"MEAN_MOTION_DDOT":0},{"OBJECT_NAME":"STARLINK-37057","OBJECT_ID":"2026-049V","EPOCH":"2026-04-11T00:36:15.452640","MEAN_MOTION":15.75198625,"ECCENTRICITY":0.00011662,"INCLINATION":97.2849,"RA_OF_ASC_NODE":121.9471,"ARG_OF_PERICENTER":27.9199,"MEAN_ANOMALY":332.2129,"EPHEMERIS_TYPE":0,"CLASSIFICATION_TYPE":"U","NORAD_CAT_ID":68161,"ELEMENT_SET_NO":999,"REV_AT_EPOCH":451,"BSTAR":0.001031885,"MEAN_MOTION_DOT":0.00156696,"MEAN_MOTION_DDOT":0},{"OBJECT_NAME":"STARLINK-37013","OBJECT_ID":"2026-049W","EPOCH":"2026-04-11T06:00:02.000160","MEAN_MOTION":15.75252133,"ECCENTRICITY":0.00013811,"INCLINATION":97.2846,"RA_OF_ASC_NODE":122.2453,"ARG_OF_PERICENTER":88.9252,"MEAN_ANOMALY":251.3305,"EPHEMERIS_TYPE":0,"CLASSIFICATION_TYPE":"U","NORAD_CAT_ID":68162,"ELEMENT_SET_NO":999,"REV_AT_EPOCH":585,"BSTAR":-0.00085760244,"MEAN_MOTION_DOT":-0.00126513,"MEAN_MOTION_DDOT":0},{"OBJECT_NAME":"STARLINK-36958","OBJECT_ID":"2026-049X","EPOCH":"2026-04-11T00:42:21.357504","MEAN_MOTION":15.7523697,"ECCENTRICITY":0.00019518,"INCLINATION":97.2847,"RA_OF_ASC_NODE":121.9414,"ARG_OF_PERICENTER":100.5133,"MEAN_ANOMALY":259.6352,"EPHEMERIS_TYPE":0,"CLASSIFICATION_TYPE":"U","NORAD_CAT_ID":68163,"ELEMENT_SET_NO":999,"REV_AT_EPOCH":451,"BSTAR":0.00090506371,"MEAN_MOTION_DOT":0.00137341,"MEAN_MOTION_DDOT":0},{"OBJECT_NAME":"STARLINK-37002","OBJECT_ID":"2026-049Y","EPOCH":"2026-04-11T06:00:02.000160","MEAN_MOTION":15.75230906,"ECCENTRICITY":8.398e-5,"INCLINATION":97.2843,"RA_OF_ASC_NODE":122.2395,"ARG_OF_PERICENTER":94.7635,"MEAN_ANOMALY":233.499,"EPHEMERIS_TYPE":0,"CLASSIFICATION_TYPE":"U","NORAD_CAT_ID":68164,"ELEMENT_SET_NO":999,"REV_AT_EPOCH":585,"BSTAR":-0.00072040938,"MEAN_MOTION_DOT":-0.00106439,"MEAN_MOTION_DDOT":0},{"OBJECT_NAME":"STARLINK-36971","OBJECT_ID":"2026-049Z","EPOCH":"2026-04-11T00:51:30.237696","MEAN_MOTION":15.75239621,"ECCENTRICITY":0.00011051,"INCLINATION":97.2844,"RA_OF_ASC_NODE":121.9326,"ARG_OF_PERICENTER":76.2156,"MEAN_ANOMALY":283.9232,"EPHEMERIS_TYPE":0,"CLASSIFICATION_TYPE":"U","NORAD_CAT_ID":68165,"ELEMENT_SET_NO":999,"REV_AT_EPOCH":451,"BSTAR":0.0011646745,"MEAN_MOTION_DOT":0.00177629,"MEAN_MOTION_DDOT":0},{"OBJECT_NAME":"STARLINK-36273","OBJECT_ID":"2026-049AA","EPOCH":"2026-04-11T07:16:44.203296","MEAN_MOTION":15.75215889,"ECCENTRICITY":0.00030273,"INCLINATION":97.2851,"RA_OF_ASC_NODE":122.1792,"ARG_OF_PERICENTER":105.3563,"MEAN_ANOMALY":254.8037,"EPHEMERIS_TYPE":0,"CLASSIFICATION_TYPE":"U","NORAD_CAT_ID":68166,"ELEMENT_SET_NO":999,"REV_AT_EPOCH":455,"BSTAR":0.0016750881,"MEAN_MOTION_DOT":0.00257719,"MEAN_MOTION_DDOT":0},{"OBJECT_NAME":"STARLINK-36969","OBJECT_ID":"2026-050A","EPOCH":"2026-04-11T06:00:02.000160","MEAN_MOTION":15.66220415,"ECCENTRICITY":0.00011114,"INCLINATION":53.1595,"RA_OF_ASC_NODE":118.8469,"ARG_OF_PERICENTER":95.7398,"MEAN_ANOMALY":189.5713,"EPHEMERIS_TYPE":0,"CLASSIFICATION_TYPE":"U","NORAD_CAT_ID":68167,"ELEMENT_SET_NO":999,"REV_AT_EPOCH":567,"BSTAR":-0.020702607,"MEAN_MOTION_DOT":-0.01924751,"MEAN_MOTION_DDOT":0},{"OBJECT_NAME":"STARLINK-36984","OBJECT_ID":"2026-050B","EPOCH":"2026-04-11T06:00:02.000160","MEAN_MOTION":15.54448813,"ECCENTRICITY":0.0001059,"INCLINATION":53.1599,"RA_OF_ASC_NODE":119.2602,"ARG_OF_PERICENTER":78.4476,"MEAN_ANOMALY":3.5572,"EPHEMERIS_TYPE":0,"CLASSIFICATION_TYPE":"U","NORAD_CAT_ID":68168,"ELEMENT_SET_NO":999,"REV_AT_EPOCH":567,"BSTAR":-0.031867576,"MEAN_MOTION_DOT":-0.01882875,"MEAN_MOTION_DDOT":0},{"OBJECT_NAME":"STARLINK-37077","OBJECT_ID":"2026-050C","EPOCH":"2026-04-11T06:00:02.000160","MEAN_MOTION":15.68005503,"ECCENTRICITY":8.835e-5,"INCLINATION":53.1595,"RA_OF_ASC_NODE":118.7863,"ARG_OF_PERICENTER":83.7268,"MEAN_ANOMALY":231.0939,"EPHEMERIS_TYPE":0,"CLASSIFICATION_TYPE":"U","NORAD_CAT_ID":68169,"ELEMENT_SET_NO":999,"REV_AT_EPOCH":567,"BSTAR":-0.019529578,"MEAN_MOTION_DOT":-0.01950008,"MEAN_MOTION_DDOT":0},{"OBJECT_NAME":"STARLINK-37003","OBJECT_ID":"2026-050D","EPOCH":"2026-04-11T06:00:02.000160","MEAN_MOTION":15.6849298,"ECCENTRICITY":8.581e-5,"INCLINATION":53.1592,"RA_OF_ASC_NODE":118.7661,"ARG_OF_PERICENTER":85.2349,"MEAN_ANOMALY":239.1411,"EPHEMERIS_TYPE":0,"CLASSIFICATION_TYPE":"U","NORAD_CAT_ID":68170,"ELEMENT_SET_NO":999,"REV_AT_EPOCH":567,"BSTAR":-0.01916056,"MEAN_MOTION_DOT":-0.01951898,"MEAN_MOTION_DDOT":0},{"OBJECT_NAME":"STARLINK-37034","OBJECT_ID":"2026-050E","EPOCH":"2026-04-11T06:00:02.000160","MEAN_MOTION":15.66744785,"ECCENTRICITY":0.00010218,"INCLINATION":53.1595,"RA_OF_ASC_NODE":118.7984,"ARG_OF_PERICENTER":96.115,"MEAN_ANOMALY":212.7307,"EPHEMERIS_TYPE":0,"CLASSIFICATION_TYPE":"U","NORAD_CAT_ID":68171,"ELEMENT_SET_NO":999,"REV_AT_EPOCH":567,"BSTAR":-0.020333004,"MEAN_MOTION_DOT":-0.0193042,"MEAN_MOTION_DDOT":0},{"OBJECT_NAME":"STARLINK-37031","OBJECT_ID":"2026-050F","EPOCH":"2026-04-11T06:00:02.000160","MEAN_MOTION":15.69683752,"ECCENTRICITY":7.92e-5,"INCLINATION":53.1596,"RA_OF_ASC_NODE":118.7239,"ARG_OF_PERICENTER":85.9234,"MEAN_ANOMALY":259.0514,"EPHEMERIS_TYPE":0,"CLASSIFICATION_TYPE":"U","NORAD_CAT_ID":68172,"ELEMENT_SET_NO":999,"REV_AT_EPOCH":567,"BSTAR":-0.018273137,"MEAN_MOTION_DOT":-0.0195573,"MEAN_MOTION_DDOT":0},{"OBJECT_NAME":"STARLINK-37076","OBJECT_ID":"2026-050G","EPOCH":"2026-04-11T06:00:02.000160","MEAN_MOTION":15.70707849,"ECCENTRICITY":7.572e-5,"INCLINATION":53.1597,"RA_OF_ASC_NODE":118.6962,"ARG_OF_PERICENTER":85.4744,"MEAN_ANOMALY":273.2529,"EPHEMERIS_TYPE":0,"CLASSIFICATION_TYPE":"U","NORAD_CAT_ID":68173,"ELEMENT_SET_NO":999,"REV_AT_EPOCH":567,"BSTAR":-0.017328796,"MEAN_MOTION_DOT":-0.0193862,"MEAN_MOTION_DDOT":0},{"OBJECT_NAME":"STARLINK-37078","OBJECT_ID":"2026-050H","EPOCH":"2026-04-11T06:00:02.000160","MEAN_MOTION":15.70784589,"ECCENTRICITY":7.745e-5,"INCLINATION":53.1597,"RA_OF_ASC_NODE":118.6858,"ARG_OF_PERICENTER":83.6529,"MEAN_ANOMALY":279.9568,"EPHEMERIS_TYPE":0,"CLASSIFICATION_TYPE":"U","NORAD_CAT_ID":68174,"ELEMENT_SET_NO":999,"REV_AT_EPOCH":567,"BSTAR":-0.017408309,"MEAN_MOTION_DOT":-0.01952099,"MEAN_MOTION_DDOT":0}]
